{
  "norad_id": 53451,
  "name": "DONGPO 04",
  "history": [
    {
      "epoch": "2026-03-28T08:48:10.033056Z",
      "apogee_km": 309.4245863751121,
      "perigee_km": 302.83029213520877,
      "latitude_deg": 3.157138121127068e-05,
      "longitude_deg": -96.94366189304498,
      "height_km": 310.5166375200772,
      "semi_major_axis_km": 6684.26443925516,
      "eccentricity": 0.00049327,
      "inclination_deg": 97.5488,
      "raan_deg": 220.8864,
      "arg_perigee_deg": 248.5636,
      "mean_anomaly_deg": 111.511,
      "mean_motion_rev_day": 15.8862842
    }
  ]
}